[{"OBJECT_NAME":"STARLINK-1625","OBJECT_ID":"2020-057Q","EPOCH":"2026-03-10T00:00:02.999808","MEAN_MOTION":15.84273381,"ECCENTRICITY":0.00055815,"INCLINATION":53.0453,"RA_OF_ASC_NODE":246.5817,"ARG_OF_PERICENTER":234.2109,"MEAN_ANOMALY":133.2295,"EPHEMERIS_TYPE":0,"CLASSIFICATION_TYPE":"U","NORAD_CAT_ID":46131,"ELEMENT_SET_NO":999,"REV_AT_EPOCH":597,"BSTAR":0.0013826286,"MEAN_MOTION_DOT":0.00332046,"MEAN_MOTION_DDOT":0},{"OBJECT_NAME":"STARLINK-36652","OBJECT_ID":"2026-033U","EPOCH":"2026-03-09T22:25:07.238784","MEAN_MOTION":15.82132001,"ECCENTRICITY":0.00021076,"INCLINATION":42.998,"RA_OF_ASC_NODE":269.8447,"ARG_OF_PERICENTER":260.7607,"MEAN_ANOMALY":99.3026,"EPHEMERIS_TYPE":0,"CLASSIFICATION_TYPE":"U","NORAD_CAT_ID":67839,"ELEMENT_SET_NO":999,"REV_AT_EPOCH":466,"BSTAR":0.0015428253,"MEAN_MOTION_DOT":0.00339222,"MEAN_MOTION_DDOT":0}]
